0 STARLINK-5429
1 54801U 22175AV  24184.57391959  .00000672  00000-0  60297-4 0  9995
2 54801  53.2161 285.0404 0001293  78.5353 281.5785 15.08833500 84907
0 STARLINK-5428
1 54800U 22175AU  24183.53341540  .00002508  00000-0  17566-3 0  9990
2 54800  53.2152 279.9273 0001392  60.8762 299.2369 15.08834410 87043
0 STARLINK-5421
1 54799U 22175AT  24183.54401906  .00005646  00000-0  37252-3 0  9991
2 54799  53.2142 265.0671 0000772 114.7442 245.3631 15.08843736 85090
0 STARLINK-5420
1 54798U 22175AS  24183.52559747  .00003477  00000-0  23643-3 0  9994
2 54798  53.2165 264.9550 0001336  76.6742 283.4399 15.08844545 87257
0 STARLINK-5435
1 54797U 22175AR  24184.53443478 -.00001768  00000-0 -93042-4 0  9992
2 54797  53.2160 285.5051 0001020 100.5755 259.5352 15.08833262 84891
0 STARLINK-5415
1 54796U 22175AQ  24183.52835412  .00002791  00000-0  19340-3 0  9995
2 54796  53.2169 274.9251 0001573  99.7836 260.3333 15.08838917 87114
0 STARLINK-5436
1 54795U 22175AP  24184.52931844 -.00007323  00000-0 -44212-3 0  9995
2 54795  53.2157 270.5089 0000963  79.9891 280.1209 15.08870173 85103
0 STARLINK-5392
1 54794U 22175AN  24183.57907228 -.00001653  00000-0 -77859-4 0  9991
2 54794  53.2171 275.6400 0001154  53.2989 306.8110 15.12106229 87116
0 STARLINK-5433
1 54793U 22175AM  24183.54769297  .00000559  00000-0  53175-4 0  9996
2 54793  53.2159 265.1009 0001152  77.5231 282.5890 15.08849391 85096
0 STARLINK-5431
1 54792U 22175AL  24183.58768653  .00001749  00000-0  12796-3 0  9999
2 54792  53.2162 289.5504 0001023  75.3913 284.7193 15.08825647 86919
0 STARLINK-5425
1 54791U 22175AK  24184.54038111 -.00001228  00000-0 -59097-4 0  9994
2 54791  53.2165 270.5812 0001364 114.2349 245.8786 15.08837722 85100
0 STARLINK-5445
1 54790U 22175AJ  24183.00209673  .00001649  00000-0  12156-3 0  9995
2 54790  53.2160 277.3294 0001181 116.5230 243.5884 15.08869418 84878
0 STARLINK-5446
1 54789U 22175AH  24184.20134100  .00000154  00000-0  27758-4 0  9993
2 54789  53.2149 256.9241 0001548  77.4308 282.6857 15.08835347 85268
0 STARLINK-5399
1 54788U 22175AG  24184.53300019  .00003008  00000-0  20694-3 0  9994
2 54788  53.2160 270.5347 0001290  78.8956 281.2181 15.08845123 85108
0 STARLINK-5441
1 54787U 22175AF  24184.72112351 -.00003847  00000-0 -22370-3 0  9990
2 54787  53.2147 284.5406 0000915  86.8449 273.2648 15.08845758 87084
0 STARLINK-5438
1 54786U 22175AE  24183.62524525  .00002734  00000-0  81728-4 0  9992
2 54786  53.2138 272.7133 0002299  92.2898 267.8370 15.38260404 87156
0 STARLINK-5440
1 54785U 22175AD  24183.13460964  .00001716  00000-0  12592-3 0  9994
2 54785  53.2162 236.8179 0001418  76.3240 283.7910 15.08832884 85451
0 STARLINK-5442
1 54784U 22175AC  24183.00255979  .00001556  00000-0  11581-3 0  9996
2 54784  53.2172 292.2964 0001229  96.3218 263.7914 15.08855786 84666
0 STARLINK-5439
1 54783U 22175AB  24184.54406746  .00000262  00000-0  34542-4 0  9991
2 54783  53.2165 270.6051 0001304 100.7157 259.3982 15.08833641 87261
0 STARLINK-5437
1 54782U 22175AA  24183.41371126  .00027632  00000-0  58680-3 0  9996
2 54782  53.2144 194.7483 0009328 339.3336  20.7293 15.44804797 88249
0 STARLINK-5443
1 54781U 22175Z   24184.61399090  .00021865  00000-0  13880-2 0  9992
2 54781  53.2160 270.3222 0001016  96.2453 263.8655 15.08830858 87274
0 STARLINK-5449
1 54780U 22175Y   24183.54309829  .00003818  00000-0  25797-3 0  9992
2 54780  53.2174 275.0090 0001215 116.4774 243.6343 15.08818554 84956
0 STARLINK-5447
1 54779U 22175X   24184.62136351 -.00002066  00000-0 -11172-3 0  9996
2 54779  53.2165 270.3759 0001456  64.4490 295.6653 15.08840303 87274
0 STARLINK-5450
1 54778U 22175W   24184.61767543  .00000799  00000-0  68277-4 0  9995
2 54778  53.2157 270.3487 0000966 116.1053 244.0039 15.08839860 87279
0 STARLINK-5468
1 54777U 22175V   24184.59602186  .00001306  00000-0  10014-3 0  9992
2 54777  53.2151 285.1804 0000969 124.2456 235.8627 15.08840332 84903
0 STARLINK-5470
1 54776U 22175U   24183.98143311  .00002403  00000-0  16902-3 0  9994
2 54776  53.2184 287.7483 0000926  95.5555 264.5543 15.08839002 84810
0 STARLINK-5465
1 54775U 22175T   24183.53987023  .00000397  00000-0  43063-4 0  9999
2 54775  53.2156 289.9629 0001322  73.5101 286.6037 15.08825661 84749
0 STARLINK-5454
1 54774U 22175S   24184.24962307  .00001890  00000-0  13685-3 0  9990
2 54774  53.2168 271.6209 0001305  91.7757 268.3384 15.08831133 85062
0 STARLINK-5453
1 54773U 22175R   24184.00722397  .00001289  00000-0  99029-4 0  9995
2 54773  53.2166 287.9079 0001220  84.1531 275.9601 15.08843065 84811
0 STARLINK-5452
1 54772U 22175Q   24183.96263824  .00003457  00000-0  23514-3 0  9997
2 54772  53.2161 273.3692 0001080  97.9853 262.1262 15.08847275 85019
0 STARLINK-5451
1 54771U 22175P   24183.53480281  .00004016  00000-0  27026-3 0  9991
2 54771  53.2151 284.9470 0000990  70.2152 289.8947 15.08840821 84817
0 STARLINK-5448
1 54770U 22175N   24183.56889386  .00001185  00000-0  92541-4 0  9991
2 54770  53.2164 275.1776 0001233  75.8103 284.3026 15.08824375 87119
0 STARLINK-5404
1 54769U 22175M   24184.68437201  .00009019  00000-0  58405-3 0  9992
2 54769  53.2162 285.0206 0001233  91.0775 269.0358 15.08838355 87074
0 STARLINK-5444
1 54768U 22175L   24183.52202753  .00004476  00000-0  29909-3 0  9994
2 54768  53.2143 275.5934 0001249  73.2401 286.8728 15.08845635 87100
0 STARLINK-5472
1 54767U 22175K   24184.67700351 -.00001756  00000-0 -92249-4 0  9995
2 54767  53.2152 284.9752 0001063  84.2709 275.8404 15.08847093 87073
0 STARLINK-5471
1 54766U 22175J   24183.55460951  .00005305  00000-0  35125-3 0  9990
2 54766  53.2166 290.0524 0001022  61.8725 298.2370 15.08825544 86905
0 STARLINK-5466
1 54765U 22175H   24184.69172494 -.00001645  00000-0 -85254-4 0  9991
2 54765  53.2170 285.0630 0001250  87.2092 272.9043 15.08852085 87078
0 STARLINK-5458
1 54764U 22175G   24183.54818838 -.00001059  00000-0 -48473-4 0  9993
2 54764  53.2157 290.0204 0001161  85.4397 274.6728 15.08845114 86909
0 STARLINK-5191
1 54763U 22175F   24183.56934958  .00002968  00000-0  20455-3 0  9993
2 54763  53.2153 290.1460 0001322  73.3356 286.7781 15.08822619 84747
0 STARLINK-5214
1 54762U 22175E   24183.69444676  .00003216  00000-0  22005-3 0  9999
2 54762  53.2162 289.5029 0000960  76.5659 283.5440 15.08842714 84764
0 STARLINK-5202
1 54761U 22175D   24183.70918172  .00001625  00000-0  12016-3 0  9990
2 54761  53.2170 289.5923 0001185 111.6593 248.4526 15.08844130 84762
0 STARLINK-5220
1 54760U 22175C   24183.04309005 -.00001311  00000-0 -64303-4 0  9996
2 54760  53.2171 292.5459 0001017  96.4450 263.6658 15.08852733 84668
0 STARLINK-5215
1 54759U 22175B   24184.63516729  .00000056  00000-0  21584-4 0  9990
2 54759  53.2159 280.4363 0000992 104.8515 255.2587 15.08842252 87137
0 STARLINK-5464
1 54758U 22175A   24183.96908627  .00003347  00000-0  22832-3 0  9998
2 54758  53.2186 283.3923 0001355 109.8997 250.2142 15.08832044 83599
0 SWOT
1 54754U 22173A   24184.87455793  .00000139  00000-0  96122-4 0  9994
2 54754  77.6107 279.5540 0000171 172.0517 188.0637 14.00174293 79188
0 SHIYAN 21 (SY-21)
1 54752U 22172A   24184.79695292  .00010516  00000-0  37961-3 0  9997
2 54752  35.9587 222.5325 0003878 152.8894 207.2042 15.27828342 86379
0 OBJECT Q
1 54751U 22167Q   24183.55684547  .00025905  00000-0  94575-3 0  9996
2 54751  97.6026 328.2659 0011573 107.1891 253.0616 15.28045583 86146
0 YAOGAN-36 04C
1 54750U 22171E   24184.91211342  .00022397  00000-0  92911-3 0  9994
2 54750  34.9948  10.6373 0010943  54.5637 305.6098 15.22923072 86375
0 YAOGAN-36 04B
1 54748U 22171C   24183.00735047  .00001976  00000-0  80227-4 0  9991
2 54748  34.9999  19.7670 0024846 136.5043 223.7637 15.24105921 86126
0 YAOGAN-36 04A
1 54746U 22171A   24184.91500635  .00015776  00000-0  65696-3 0  9998
2 54746  34.9940  10.6459 0005202 340.9352  19.1167 15.22888579 86405
0 CZ-4C DEB
1 54702U 22169D   24183.88025254  .00001280  00000-0  54092-3 0  9994
2 54702  59.9981  80.8638 0017550  39.9931 320.2394 14.30498466 81160
0 CZ-4C R/B
1 54701U 22169C   24183.51385631  .00000969  00000-0  27316-3 0  9993
2 54701  59.9578  17.1807 0090322 159.2441 201.2310 14.50394492 82244
0 SHIYAN 20B (SY-20B)
1 54700U 22169B   24183.41737628  .00000360  00000-0  19523-3 0  9994
2 54700  59.9971  85.2259 0021124  33.9526 326.2856 14.28993358 81033
0 SHIYAN 20A (SY-20A)
1 54699U 22169A   24183.41323728  .00000316  00000-0  17820-3 0  9992
2 54699  59.9965  85.1764 0015335  39.2348 320.9795 14.28974108 81036
0 OBJECT P
1 54695U 22167P   24183.52310175  .00014397  00000-0  65945-3 0  9995
2 54695  97.6122 325.8093 0013242 108.4035 251.8641 15.20516470 86294
0 OBJECT N
1 54694U 22167N   24183.60661092  .00014956  00000-0  68742-3 0  9999
2 54694  97.6075 325.5039 0010559 120.8146 239.4129 15.20418786 86302
0 OBJECT M
1 54693U 22167M   24183.53856661  .00086216  00000-0  16217-2 0  9995
2 54693  97.5985 332.9596 0005934  98.1475 262.0448 15.48234232 86749
0 OBJECT L
1 54692U 22167L   24183.61812825  .00014956  00000-0  68698-3 0  9990
2 54692  97.6166 326.3175 0013538 105.1889 255.0844 15.20407835 86313
0 OBJECT K
1 54691U 22167K   24183.55714869  .00029947  00000-0  95529-3 0  9990
2 54691  97.6009 329.7484 0010814 105.6215 254.6221 15.32406895 86570
0 OBJECT J
1 54690U 22167J   24183.61998605  .00014734  00000-0  67612-3 0  9998
2 54690  97.6052 325.3307 0011073  99.2782 260.9705 15.20472302 86309
0 OBJECT H
1 54689U 22167H   24183.51019851  .00013590  00000-0  62498-3 0  9998
2 54689  97.6184 326.1287 0011441 106.0574 254.1921 15.20413888 86280
0 OBJECT G
1 54688U 22167G   24183.57857316  .00070942  00000-0  15980-2 0  9996
2 54688  97.5890 331.6806 0008948 102.6722 257.5526 15.42982673 86729
0 OBJECT F
1 54687U 22167F   24184.83899879  .00016567  00000-0  81788-3 0  9998
2 54687  97.5964 326.5075 0009103 101.4369 258.7887 15.17927175 86494
0 OBJECT E
1 54686U 22167E   24183.59928708  .00014704  00000-0  67604-3 0  9995
2 54686  97.6108 325.6271 0010029 128.9109 231.3021 15.20417628 86293
